{
  "type": "FeatureCollection",
  "features": [
    {
      "type": "Feature",
      "properties": {
        "norad_id": 46805,
        "name": "COSMOS 2547 (705K)",
        "group": "glo-ops",
        "lat": -2.9985637624026866,
        "lon": -162.9268504333781,
        "alt_km": 19140.738711550017,
        "timestamp": "2025-12-18T17:50:15.218393+00:00",
        "meta_object_name": "COSMOS 2547 (705K)",
        "meta_object_id": "2020-075A",
        "meta_epoch": "2025-12-17T08:09:16.456320",
        "meta_mean_motion": 2.1310013,
        "meta_eccentricity": 0.0006169,
        "meta_inclination": 64.5962,
        "meta_ra_of_asc_node": 198.5429,
        "meta_arg_of_pericenter": 228.3795,
        "meta_mean_anomaly": 131.6499,
        "meta_ephemeris_type": 0,
        "meta_classification_type": "U",
        "meta_norad_cat_id": 46805,
        "meta_element_set_no": 999,
        "meta_rev_at_epoch": 4003,
        "meta_bstar": 0,
        "meta_mean_motion_dot": 1.12e-06,
        "meta_mean_motion_ddot": 0,
        "tle_line1": "1 46805U 20075A   25351.33977380  .00000112  00000+0  00000+0 0  9995",
        "tle_line2": "2 46805  64.5962 198.5429 0006169 228.3795 131.6499  2.13100130 40034"
      },
      "geometry": {
        "type": "Point",
        "coordinates": [
          -162.9268504333781,
          -2.9985637624026866
        ]
      }
    },
    {
      "type": "Feature",
      "properties": {
        "norad_id": 52984,
        "name": "COSMOS 2557 (706K)",
        "group": "glo-ops",
        "lat": -43.46266796399496,
        "lon": 167.83058076403785,
        "alt_km": 19111.75825852163,
        "timestamp": "2025-12-18T17:50:15.218404+00:00",
        "meta_object_name": "COSMOS 2557 (706K)",
        "meta_object_id": "2022-075A",
        "meta_epoch": "2025-12-17T23:22:55.877376",
        "meta_mean_motion": 2.13101861,
        "meta_eccentricity": 0.00136329,
        "meta_inclination": 64.4068,
        "meta_ra_of_asc_node": 320.867,
        "meta_arg_of_pericenter": 277.443,
        "meta_mean_anomaly": 82.3946,
        "meta_ephemeris_type": 0,
        "meta_classification_type": "U",
        "meta_norad_cat_id": 52984,
        "meta_element_set_no": 999,
        "meta_rev_at_epoch": 2685,
        "meta_bstar": 0,
        "meta_mean_motion_dot": -6.7e-07,
        "meta_mean_motion_ddot": 0,
        "tle_line1": "1 52984U 22075A   25351.97425784 -.00000067  00000+0  00000+0 0  9998",
        "tle_line2": "2 52984  64.4068 320.8670 0013632 277.4430  82.3946  2.13101861 26852"
      },
      "geometry": {
        "type": "Point",
        "coordinates": [
          167.83058076403785,
          -43.46266796399496
        ]
      }
    },
    {
      "type": "Feature",
      "properties": {
        "norad_id": 54031,
        "name": "COSMOS 2559 (707K)",
        "group": "glo-ops",
        "lat": 7.766422726999874,
        "lon": -35.33479917075198,
        "alt_km": 19159.084475460335,
        "timestamp": "2025-12-18T17:50:15.218415+00:00",
        "meta_object_name": "COSMOS 2559 (707K)",
        "meta_object_id": "2022-130A",
        "meta_epoch": "2025-12-17T07:46:49.658304",
        "meta_mean_motion": 2.13101395,
        "meta_eccentricity": 0.00116575,
        "meta_inclination": 64.3796,
        "meta_ra_of_asc_node": 320.9797,
        "meta_arg_of_pericenter": 192.1273,
        "meta_mean_anomaly": 167.8384,
        "meta_ephemeris_type": 0,
        "meta_classification_type": "U",
        "meta_norad_cat_id": 54031,
        "meta_element_set_no": 999,
        "meta_rev_at_epoch": 2481,
        "meta_bstar": 0,
        "meta_mean_motion_dot": -6.8e-07,
        "meta_mean_motion_ddot": 0,
        "tle_line1": "1 54031U 22130A   25351.32418586 -.00000068  00000+0  00000+0 0  9997",
        "tle_line2": "2 54031  64.3796 320.9797 0011657 192.1273 167.8384  2.13101395 24819"
      },
      "geometry": {
        "type": "Point",
        "coordinates": [
          -35.33479917075198,
          7.766422726999874
        ]
      }
    },
    {
      "type": "Feature",
      "properties": {
        "norad_id": 54377,
        "name": "COSMOS 2564 (761)",
        "group": "glo-ops",
        "lat": 45.3768458422406,
        "lon": -9.890768794730983,
        "alt_km": 19119.42041829927,
        "timestamp": "2025-12-18T17:50:15.218426+00:00",
        "meta_object_name": "COSMOS 2564 (761)",
        "meta_object_id": "2022-161A",
        "meta_epoch": "2025-12-18T02:33:56.803680",
        "meta_mean_motion": 2.131021,
        "meta_eccentricity": 0.00085677,
        "meta_inclination": 64.7385,
        "meta_ra_of_asc_node": 198.7206,
        "meta_arg_of_pericenter": 204.1493,
        "meta_mean_anomaly": 155.8928,
        "meta_ephemeris_type": 0,
        "meta_classification_type": "U",
        "meta_norad_cat_id": 54377,
        "meta_element_set_no": 999,
        "meta_rev_at_epoch": 2377,
        "meta_bstar": 0,
        "meta_mean_motion_dot": 1.11e-06,
        "meta_mean_motion_ddot": 0,
        "tle_line1": "1 54377U 22161A   25352.10690745  .00000111  00000+0  00000+0 0  9998",
        "tle_line2": "2 54377  64.7385 198.7206 0008567 204.1493 155.8928  2.13102100 23770"
      },
      "geometry": {
        "type": "Point",
        "coordinates": [
          -9.890768794730983,
          45.3768458422406
        ]
      }
    },
    {
      "type": "Feature",
      "properties": {
        "norad_id": 57517,
        "name": "COSMOS 2569 (703K)",
        "group": "glo-ops",
        "lat": 53.398979246140364,
        "lon": -139.70634352905384,
        "alt_km": 19150.579840965667,
        "timestamp": "2025-12-18T17:50:15.218451+00:00",
        "meta_object_name": "COSMOS 2569 (703K)",
        "meta_object_id": "2023-114A",
        "meta_epoch": "2025-12-18T02:53:08.324736",
        "meta_mean_motion": 2.13104044,
        "meta_eccentricity": 0.00107319,
        "meta_inclination": 65.197,
        "meta_ra_of_asc_node": 78.7317,
        "meta_arg_of_pericenter": 286.9932,
        "meta_mean_anomaly": 72.9111,
        "meta_ephemeris_type": 0,
        "meta_classification_type": "U",
        "meta_norad_cat_id": 57517,
        "meta_element_set_no": 999,
        "meta_rev_at_epoch": 1840,
        "meta_bstar": 0,
        "meta_mean_motion_dot": -4.2e-07,
        "meta_mean_motion_ddot": 0,
        "tle_line1": "1 57517U 23114A   25352.12023524 -.00000042  00000+0  00000+0 0  9997",
        "tle_line2": "2 57517  65.1970  78.7317 0010731 286.9932  72.9111  2.13104044 18402"
      },
      "geometry": {
        "type": "Point",
        "coordinates": [
          -139.70634352905384,
          53.398979246140364
        ]
      }
    },
    {
      "type": "Feature",
      "properties": {
        "norad_id": 63130,
        "name": "COSMOS 2584 (704K)",
        "group": "glo-ops",
        "lat": -22.441461414727588,
        "lon": -89.94645170726608,
        "alt_km": 19113.961490105026,
        "timestamp": "2025-12-18T17:50:15.218465+00:00",
        "meta_object_name": "COSMOS 2584 (704K)",
        "meta_object_id": "2025-042A",
        "meta_epoch": "2025-12-14T17:19:43.603680",
        "meta_mean_motion": 2.13103043,
        "meta_eccentricity": 0.00076907,
        "meta_inclination": 64.977,
        "meta_ra_of_asc_node": 79.0784,
        "meta_arg_of_pericenter": 217.9412,
        "meta_mean_anomaly": 142.0178,
        "meta_ephemeris_type": 0,
        "meta_classification_type": "U",
        "meta_norad_cat_id": 63130,
        "meta_element_set_no": 999,
        "meta_rev_at_epoch": 611,
        "meta_bstar": 0,
        "meta_mean_motion_dot": -5.6e-07,
        "meta_mean_motion_ddot": 0,
        "tle_line1": "1 63130U 25042A   25348.72203245 -.00000056  00000+0  00000+0 0  9993",
        "tle_line2": "2 63130  64.9770  79.0784 0007690 217.9412 142.0178  2.13103043  6119"
      },
      "geometry": {
        "type": "Point",
        "coordinates": [
          -89.94645170726608,
          -22.441461414727588
        ]
      }
    },
    {
      "type": "Feature",
      "properties": {
        "norad_id": 65590,
        "name": "COSMOS 2596 (708K)",
        "group": "glo-ops",
        "lat": -32.64408949849575,
        "lon": -56.34935080396587,
        "alt_km": 19099.951918552822,
        "timestamp": "2025-12-18T17:50:15.218477+00:00",
        "meta_object_name": "COSMOS 2596 (708K)",
        "meta_object_id": "2025-206B",
        "meta_epoch": "2025-12-16T13:58:37.157664",
        "meta_mean_motion": 2.13100551,
        "meta_eccentricity": 0.00140491,
        "meta_inclination": 64.7424,
        "meta_ra_of_asc_node": 321.3409,
        "meta_arg_of_pericenter": 306.7915,
        "meta_mean_anomaly": 158.8114,
        "meta_ephemeris_type": 0,
        "meta_classification_type": "U",
        "meta_norad_cat_id": 65590,
        "meta_element_set_no": 999,
        "meta_rev_at_epoch": 202,
        "meta_bstar": 0,
        "meta_mean_motion_dot": -6.9e-07,
        "meta_mean_motion_ddot": 0,
        "tle_line1": "1 65590U 25206B   25350.58237451 -.00000069  00000+0  00000+0 0  9994",
        "tle_line2": "2 65590  64.7424 321.3409 0014049 306.7915 158.8114  2.13100551  2025"
      },
      "geometry": {
        "type": "Point",
        "coordinates": [
          -56.34935080396587,
          -32.64408949849575
        ]
      }
    }
  ]
}